start=new Date('2021-10-15T00:00:00.000Z').valueOf();
sats=[{"MEAN_MOTION_DDOT":"0.0000000000000","ELEMENT_SET_NO":"999","PERIOD":"95.593","INCLINATION":"53.0555","RA_OF_ASC_NODE":"1.4756","TLE_LINE2":"2 44932  53.0555   1.4756 0001355  93.9664 266.1479 15.06392567 98849","EPOCH":"2021-10-14T12:35:45.991104","APOAPSIS":"548.175","OBJECT_ID":"2020-001U","GP_ID":"187155825","MEAN_MOTION":"15.06392567","EPHEMERIS_TYPE":"0","ECCENTRICITY":"0.00013550","TLE_LINE1":"1 44932U 20001U   21287.52483786 -.00001103  00000-0 -55146-4 0  9990","RCS_SIZE":"LARGE","PERIAPSIS":"546.298","MEAN_MOTION_DOT":"-0.00001103","REV_AT_EPOCH":"9884","OBJECT_TYPE":"PAYLOAD","COUNTRY_CODE":"US","LAUNCH_DATE":"2020-01-07","NORAD_CAT_ID":"44932","ARG_OF_PERICENTER":"93.9664","DECAY_DATE":null,"SEMIMAJOR_AXIS":"6925.371","SITE":"AFETR","FILE":"3162495","BSTAR":"-0.00005514600000","MEAN_ELEMENT_THEORY":"SGP4","CENTER_NAME":"EARTH","REF_FRAME":"TEME","CLASSIFICATION_TYPE":"U","OBJECT_NAME":"STARLINK-1130","MEAN_ANOMALY":"266.1479","TIME_SYSTEM":"UTC"},{"CLASSIFICATION_TYPE":"U","REF_FRAME":"TEME","CENTER_NAME":"EARTH","MEAN_ELEMENT_THEORY":"SGP4","SITE":"AFETR","FILE":"3162495","BSTAR":"-0.00019815000000","SEMIMAJOR_AXIS":"6925.403","ARG_OF_PERICENTER":"89.8100","DECAY_DATE":null,"LAUNCH_DATE":"2020-01-07","NORAD_CAT_ID":"44933","COUNTRY_CODE":"US","TIME_SYSTEM":"UTC","MEAN_ANOMALY":"270.3032","OBJECT_NAME":"STARLINK-1144","REV_AT_EPOCH":"9889","MEAN_MOTION_DOT":"-0.00003230","PERIAPSIS":"546.402","OBJECT_TYPE":"PAYLOAD","EPHEMERIS_TYPE":"0","GP_ID":"187155337","MEAN_MOTION":"15.06382213","OBJECT_ID":"2020-001V","APOAPSIS":"548.134","EPOCH":"2021-10-14T11:37:22.998144","RCS_SIZE":"LARGE","TLE_LINE1":"1 44933U 20001V   21287.48429396 -.00003230  00000-0 -19815-3 0  9998","ECCENTRICITY":"0.00012500","ELEMENT_SET_NO":"999","MEAN_MOTION_DDOT":"0.0000000000000","TLE_LINE2":"2 44933  53.0563   1.6497 0001250  89.8100 270.3032 15.06382213 98890","RA_OF_ASC_NODE":"1.6497","PERIOD":"95.593","INCLINATION":"53.0563"},{"RA_OF_ASC_NODE":"341.2934","TLE_LINE2":"2 44934  53.0550 341.2934 0001301  89.6082 270.5056 15.06380130 97893","INCLINATION":"53.0550","PERIOD":"95.593","MEAN_MOTION_DDOT":"0.0000000000000","ELEMENT_SET_NO":"999","TLE_LINE1":"1 44934U 20001W   21287.56354704 -.00003002  00000-0 -18283-3 0  9993","RCS_SIZE":"LARGE","ECCENTRICITY":"0.00013010","EPHEMERIS_TYPE":"0","OBJECT_ID":"2020-001W","GP_ID":"187155597","MEAN_MOTION":"15.06380130","APOAPSIS":"548.175","EPOCH":"2021-10-14T13:31:30.464256","OBJECT_TYPE":"PAYLOAD","REV_AT_EPOCH":"9789","MEAN_MOTION_DOT":"-0.00003002","PERIAPSIS":"546.373","TIME_SYSTEM":"UTC","MEAN_ANOMALY":"270.5056","OBJECT_NAME":"STARLINK-1071","CLASSIFICATION_TYPE":"U","REF_FRAME":"TEME","FILE":"3162480","SITE":"AFETR","BSTAR":"-0.00018283000000","MEAN_ELEMENT_THEORY":"SGP4","CENTER_NAME":"EARTH","SEMIMAJOR_AXIS":"6925.409","LAUNCH_DATE":"2020-01-07","NORAD_CAT_ID":"44934","COUNTRY_CODE":"US","ARG_OF_PERICENTER":"89.6082","DECAY_DATE":null},{"OBJECT_TYPE":"PAYLOAD","PERIAPSIS":"353.495","REV_AT_EPOCH":"9819","MEAN_MOTION_DOT":"-0.00018369","MEAN_ANOMALY":"350.0701","OBJECT_NAME":"STARLINK-1072","TIME_SYSTEM":"UTC","SEMIMAJOR_AXIS":"6733.089","ARG_OF_PERICENTER":"10.0359","DECAY_DATE":null,"LAUNCH_DATE":"2020-01-07","NORAD_CAT_ID":"44935","COUNTRY_CODE":"US","CLASSIFICATION_TYPE":"U","REF_FRAME":"TEME","MEAN_ELEMENT_THEORY":"SGP4","CENTER_NAME":"EARTH","FILE":"3162292","SITE":"AFETR","BSTAR":"-0.00013701000000","PERIOD":"91.639","INCLINATION":"53.0536","RA_OF_ASC_NODE":"320.0565","TLE_LINE2":"2 44935  53.0536 320.0565 0002166  10.0359 350.0701 15.71380073 98191","ELEMENT_SET_NO":"999","MEAN_MOTION_DDOT":"0.0000000000000","TLE_LINE1":"1 44935U 20001X   21287.52833576 -.00018369  00000-0 -13701-3 0  9991","RCS_SIZE":"LARGE","ECCENTRICITY":"0.00021660","APOAPSIS":"356.412","EPOCH":"2021-10-14T12:40:48.209664","EPHEMERIS_TYPE":"0","GP_ID":"187150377","MEAN_MOTION":"15.71380073","OBJECT_ID":"2020-001X"},{"PERIAPSIS":"259.171","MEAN_MOTION_DOT":"0.01767327","REV_AT_EPOCH":"9883","OBJECT_TYPE":"PAYLOAD","ARG_OF_PERICENTER":"113.5779","DECAY_DATE":null,"LAUNCH_DATE":"2020-01-07","COUNTRY_CODE":"US","NORAD_CAT_ID":"44936","SEMIMAJOR_AXIS":"6641.054","MEAN_ELEMENT_THEORY":"SGP4","CENTER_NAME":"EARTH","FILE":"3163138","BSTAR":"0.00271720000000","SITE":"AFETR","CLASSIFICATION_TYPE":"U","REF_FRAME":"TEME","OBJECT_NAME":"STARLINK-1078","MEAN_ANOMALY":"246.5635","TIME_SYSTEM":"UTC","ELEMENT_SET_NO":"999","MEAN_MOTION_DDOT":"0.0021050000000","PERIOD":"89.767","INCLINATION":"53.0567","TLE_LINE2":"2 44936  53.0567 275.0297 0005644 113.5779 246.5635 16.04158430 98839","RA_OF_ASC_NODE":"275.0297","EPOCH":"2021-10-14T16:47:32.249184","APOAPSIS":"266.667","GP_ID":"187187719","MEAN_MOTION":"16.04158430","OBJECT_ID":"2020-001Y","EPHEMERIS_TYPE":"0","ECCENTRICITY":"0.00056440","RCS_SIZE":"LARGE","TLE_LINE1":"1 44936U 20001Y   21287.69967881  .01767327  21050-2  27172-2 0  9997"},{"PERIAPSIS":"546.616","MEAN_MOTION_DOT":"-0.00004279","REV_AT_EPOCH":"9794","OBJECT_TYPE":"PAYLOAD","DECAY_DATE":null,"ARG_OF_PERICENTER":"92.3990","LAUNCH_DATE":"2020-01-07","NORAD_CAT_ID":"44937","COUNTRY_CODE":"US","SEMIMAJOR_AXIS":"6925.395","MEAN_ELEMENT_THEORY":"SGP4","CENTER_NAME":"EARTH","SITE":"AFETR","FILE":"3163138","BSTAR":"-0.00026866000000","REF_FRAME":"TEME","CLASSIFICATION_TYPE":"U","OBJECT_NAME":"STARLINK-1079","MEAN_ANOMALY":"267.7106","TIME_SYSTEM":"UTC","ELEMENT_SET_NO":"999","MEAN_MOTION_DDOT":"0.0000000000000","PERIOD":"95.593","INCLINATION":"53.0553","RA_OF_ASC_NODE":"339.9078","TLE_LINE2":"2 44937  53.0553 339.9078 0000930  92.3990 267.7106 15.06384980 97945","EPOCH":"2021-10-14T20:57:22.528224","APOAPSIS":"547.904","GP_ID":"187188470","MEAN_MOTION":"15.06384980","OBJECT_ID":"2020-001Z","EPHEMERIS_TYPE":"0","ECCENTRICITY":"0.00009300","RCS_SIZE":"LARGE","TLE_LINE1":"1 44937U 20001Z   21287.87317741 -.00004279  00000-0 -26866-3 0  9993"},{"ECCENTRICITY":"0.00009720","RCS_SIZE":"LARGE","TLE_LINE1":"1 44938U 20001AA  21287.83998795 -.00001148  00000-0 -58200-4 0  9994","EPOCH":"2021-10-14T20:09:34.958880","APOAPSIS":"547.923","OBJECT_ID":"2020-001AA","MEAN_MOTION":"15.06388031","GP_ID":"187186718","EPHEMERIS_TYPE":"0","INCLINATION":"53.0552","PERIOD":"95.593","TLE_LINE2":"2 44938  53.0552 340.0501 0000972  97.0505 263.0594 15.06388031 97939","RA_OF_ASC_NODE":"340.0501","MEAN_MOTION_DDOT":"0.0000000000000","ELEMENT_SET_NO":"999","OBJECT_NAME":"STARLINK-1082","MEAN_ANOMALY":"263.0594","TIME_SYSTEM":"UTC","COUNTRY_CODE":"US","LAUNCH_DATE":"2020-01-07","NORAD_CAT_ID":"44938","ARG_OF_PERICENTER":"97.0505","DECAY_DATE":null,"SEMIMAJOR_AXIS":"6925.385","SITE":"AFETR","FILE":"3163138","BSTAR":"-0.00005820000000","MEAN_ELEMENT_THEORY":"SGP4","CENTER_NAME":"EARTH","REF_FRAME":"TEME","CLASSIFICATION_TYPE":"U","OBJECT_TYPE":"PAYLOAD","PERIAPSIS":"546.577","MEAN_MOTION_DOT":"-0.00001148","REV_AT_EPOCH":"9793"},{"ECCENTRICITY":"0.00012030","RCS_SIZE":"LARGE","TLE_LINE1":"1 44939U 20001AB  21287.84736273 -.00001193  00000-0 -61252-4 0  9998","EPOCH":"2021-10-14T20:20:12.139872","APOAPSIS":"548.089","MEAN_MOTION":"15.06386271","GP_ID":"187186968","OBJECT_ID":"2020-001AB","EPHEMERIS_TYPE":"0","INCLINATION":"53.0547","PERIOD":"95.593","RA_OF_ASC_NODE":"340.0282","TLE_LINE2":"2 44939  53.0547 340.0282 0001203  96.4740 263.6386 15.06386271 97931","ELEMENT_SET_NO":"999","MEAN_MOTION_DDOT":"0.0000000000000","OBJECT_NAME":"STARLINK-1083","MEAN_ANOMALY":"263.6386","TIME_SYSTEM":"UTC","ARG_OF_PERICENTER":"96.4740","DECAY_DATE":null,"LAUNCH_DATE":"2020-01-07","NORAD_CAT_ID":"44939","COUNTRY_CODE":"US","SEMIMAJOR_AXIS":"6925.391","MEAN_ELEMENT_THEORY":"SGP4","CENTER_NAME":"EARTH","BSTAR":"-0.00006125200000","FILE":"3163138","SITE":"AFETR","CLASSIFICATION_TYPE":"U","REF_FRAME":"TEME","OBJECT_TYPE":"PAYLOAD","PERIAPSIS":"546.423","MEAN_MOTION_DOT":"-0.00001193","REV_AT_EPOCH":"9793"},{"EPOCH":"2021-10-14T20:36:07.292736","APOAPSIS":"548.036","OBJECT_ID":"2020-001AC","GP_ID":"187188220","MEAN_MOTION":"15.06389947","EPHEMERIS_TYPE":"0","ECCENTRICITY":"0.00011430","RCS_SIZE":"LARGE","TLE_LINE1":"1 44940U 20001AC  21287.85841774 -.00001157  00000-0 -58838-4 0  9990","MEAN_MOTION_DDOT":"0.0000000000000","ELEMENT_SET_NO":"999","INCLINATION":"53.0547","PERIOD":"95.593","TLE_LINE2":"2 44940  53.0547 339.9671 0001143  91.1162 268.9958 15.06389947 97931","RA_OF_ASC_NODE":"339.9671","COUNTRY_CODE":"US","LAUNCH_DATE":"2020-01-07","NORAD_CAT_ID":"44940","ARG_OF_PERICENTER":"91.1162","DECAY_DATE":null,"SEMIMAJOR_AXIS":"6925.379","FILE":"3163138","BSTAR":"-0.00005883800000","SITE":"AFETR","CENTER_NAME":"EARTH","MEAN_ELEMENT_THEORY":"SGP4","CLASSIFICATION_TYPE":"U","REF_FRAME":"TEME","OBJECT_NAME":"STARLINK-1091","MEAN_ANOMALY":"268.9958","TIME_SYSTEM":"UTC","PERIAPSIS":"546.453","MEAN_MOTION_DOT":"-0.00001157","REV_AT_EPOCH":"9793","OBJECT_TYPE":"PAYLOAD"},{"APOAPSIS":"548.181","EPOCH":"2021-10-14T21:07:58.158336","EPHEMERIS_TYPE":"0","OBJECT_ID":"2020-001AD","GP_ID":"187187970","MEAN_MOTION":"15.06404802","TLE_LINE1":"1 44941U 20001AD  21287.88053424 -.00000342  00000-0 -40713-5 0  9990","RCS_SIZE":"LARGE","ECCENTRICITY":"0.00014180","MEAN_MOTION_DDOT":"0.0000000000000","ELEMENT_SET_NO":"999","PERIOD":"95.592","INCLINATION":"53.0538","TLE_LINE2":"2 44941  53.0538 339.8693 0001418  87.8536 272.2616 15.06404802 97945","RA_OF_ASC_NODE":"339.8693","SEMIMAJOR_AXIS":"6925.334","COUNTRY_CODE":"US","LAUNCH_DATE":"2020-01-07","NORAD_CAT_ID":"44941","ARG_OF_PERICENTER":"87.8536","DECAY_DATE":null,"CLASSIFICATION_TYPE":"U","REF_FRAME":"TEME","FILE":"3163138","SITE":"AFETR","BSTAR":"-0.00000407130000","MEAN_ELEMENT_THEORY":"SGP4","CENTER_NAME":"EARTH","MEAN_ANOMALY":"272.2616","OBJECT_NAME":"STARLINK-1094","TIME_SYSTEM":"UTC","PERIAPSIS":"546.217","REV_AT_EPOCH":"9794","MEAN_MOTION_DOT":"-0.00000342","OBJECT_TYPE":"PAYLOAD"}];
